GLOBALSTAR M068         
1 32266U 07048D   25241.84796093 -.00000071  00000+0  18347-3 0  9992
2 32266  51.9880  77.7127 0000687 353.8819 109.8240 12.62827548826860
GLOBALSTAR M079         
1 37188U 10054A   25241.84205363 -.00000097  00000+0  37905-4 0  9996
2 37188  52.0029 275.5723 0000599 102.7186  67.6903 12.62266354685755
GLOBALSTAR M074         
1 37189U 10054B   25241.86884132 -.00000096  00000+0  43169-4 0  9994
2 37189  52.0007 274.8034 0000395 129.7797  41.1563 12.62271060686367
GLOBALSTAR M076         
1 37190U 10054C   25241.81597625 -.00000083  00000+0  11516-3 0  9995
2 37190  52.0020 275.1413 0000605 122.6581  48.1944 12.62265062686079
GLOBALSTAR M077         
1 37191U 10054D   25241.92998627 -.00000098  00000+0  32553-4 0  9996
2 37191  52.0048 231.6586 0000268  81.4539 315.1749 12.62323066686460
GLOBALSTAR M075         
1 37192U 10054E   25241.98788841 -.00000082  00000+0  12092-3 0  9996
2 37192  51.9965 316.8332 0000551 110.4553  62.5319 12.62267109685163
GLOBALSTAR M073         
1 37193U 10054F   25241.74999687 -.00000090  00000+0  76187-4 0  9998
2 37193  52.0037 231.4302 0000427  92.2515  79.2408 12.62262264687121
GLOBALSTAR M083         
1 37739U 11033A   25241.81417683 -.00000073  00000+0  17059-3 0  9994
2 37739  51.9848 179.8651 0000609  59.6482 342.8610 12.62275090656153
GLOBALSTAR M088         
1 37740U 11033B   25241.86045207 -.00000097  00000+0  36307-4 0  9994
2 37740  52.0211  85.4449 0000744  68.2992 304.8396 12.62267644651701
GLOBALSTAR M091         
1 37741U 11033C   25241.65052709 -.00000103  00000+0  68380-5 0  9992
2 37741  52.0004  49.4766 0000937  71.7333   8.2564 12.62269899652466
GLOBALSTAR M085         
1 37742U 11033D   25241.64231896 -.00000096  00000+0  46150-4 0  9999
2 37742  52.0158   0.5413 0000831  84.3224  18.1314 12.62264058652977
GLOBALSTAR M081         
1 37743U 11033E   25241.66965277 -.00000100  00000+0  21140-4 0  9997
2 37743  51.9986   3.2272 0000916  98.2566   7.3453 12.62267666653125
GLOBALSTAR M089         
1 37744U 11033F   25241.96117720 -.00000085  00000+0  10526-3 0  9990
2 37744  51.9948 316.5557 0000594 138.0596  33.8402 12.62266014654000
GLOBALSTAR M084         
1 38040U 11080A   25241.57827425 -.00000079  00000+0  14078-3 0  9998
2 38040  51.9997 185.0450 0000305 107.2673  63.3091 12.62268313631932
GLOBALSTAR M080         
1 38041U 11080B   25241.92379574 -.00000080  00000+0  13354-3 0  9993
2 38041  52.0048 185.6110 0000653  14.8328  55.8701 12.62268591632109
GLOBALSTAR M082         
1 38042U 11080C   25241.94099806 -.00000078  00000+0  14418-3 0  9992
2 38042  52.0070 141.0281 0000855  35.8467  43.9624 12.62268106632813
GLOBALSTAR M092         
1 38043U 11080D   25241.90375610 -.00000114  00000+0 -56729-4 0  9993
2 38043  52.0068 231.5230 0000240  77.6803 312.1391 12.62265530631264
GLOBALSTAR M090         
1 38044U 11080E   25241.95260528 -.00000081  00000+0  12764-3 0  9992
2 38044  52.0117 134.8538 0000804  60.3568 312.3282 12.62261947632933
GLOBALSTAR M086         
1 38045U 11080F   25241.91421882 -.00000091  00000+0  69531-4 0  9997
2 38045  51.9891 135.3738 0001487 105.5697 336.0090 12.62276449632878
GLOBALSTAR M097         
1 39072U 13005A   25241.76496767 -.00000106  00000+0 -10873-4 0  9997
2 39072  52.0053  50.4509 0000973  84.7540 275.3438 12.62265761580102
GLOBALSTAR M093         
1 39073U 13005B   25241.73889580 -.00000105  00000+0 -77279-5 0  9997
2 39073  52.0114  43.7654 0001192  81.0466 279.0536 12.62263943580052
GLOBALSTAR M094         
1 39074U 13005C   25241.89714507 -.00000084  00000+0  11309-3 0  9996
2 39074  51.9977 317.6949 0000739  96.3359 263.7592 12.62269324581685
GLOBALSTAR M096         
1 39075U 13005D   25241.51432846 -.00000097  00000+0  36571-4 0  9992
2 39075  52.0101   7.4285 0000928  86.0770 274.0203 12.62266193580557
GLOBALSTAR M078         
1 39076U 13005E   25241.88408566 -.00000114  00000+0 -54672-4 0  9998
2 39076  51.9872  90.7147 0001092  23.7088 336.3829 12.62259841579226
GLOBALSTAR M095         
1 39077U 13005F   25241.91005434 -.00000096  00000+0  45820-4 0  9993
2 39077  52.0074  87.8253 0001182  54.8283 305.2695 12.62259764579084
GLOBALSTAR M087         
1 52888U 22064A   25241.92453118 -.00000091  00000+0  69186-4 0  9996
2 52888  51.9971 229.1953 0000439  52.9732 307.1174 12.62301059154350
